NORAD_CAT_ID,OBJECT_NAME,OBJECT_TYPE,EPOCH,MEAN_MOTION,ECCENTRICITY,INCLINATION,RA_OF_ASC_NODE,ARG_OF_PERICENTER,MEAN_ANOMALY,BSTAR,MEAN_MOTION_DOT,MEAN_MOTION_DDOT,TLE_LINE0,TLE_LINE1,TLE_LINE2,SEMIMAJOR_AXIS,PERIOD,APOGEE,PERIGEE,DECAYED
53784.0,STARLINK-4687,PAYLOAD,2023-11-27 12:12:48,15.08825776,0.0001976,53.2204,54.4475,138.1153,221.9991,-0.00035382,-5.913e-05,0.0,0 STARLINK-4687,1 53784U 22111M   23331.50889402 -.00005913  00000-0 -35382-3 0  9996,2 53784  53.2204  54.4475 0001976 138.1153 221.9991 15.08825776 67105,6917.924,95.438,541.156,538.422,0.0
53784.0,STARLINK-4687,PAYLOAD,2023-11-28 12:03:34,15.08859301,0.000226,53.2195,49.9953,58.4308,301.6905,0.00026617,3.953e-05,0.0,0 STARLINK-4687,1 53784U 22111M   23332.50248672  .00003953  00000-0  26617-3 0  9996,2 53784  53.2195  49.9953 0002260  58.4308 301.6905 15.08859301 67255,6917.821,95.436,541.25,538.123,0.0
53784.0,STARLINK-4687,PAYLOAD,2023-11-29 11:54:22,15.08842814,0.0001563,53.2189,45.5297,95.8325,264.2845,0.00036921,5.593e-05,0.0,0 STARLINK-4687,1 53784U 22111M   23333.49609570  .00005593  00000-0  36921-3 0  9994,2 53784  53.2189  45.5297 0001563  95.8325 264.2845 15.08842814 67405,6917.872,95.437,540.818,538.656,0.0
53784.0,STARLINK-4687,PAYLOAD,2023-12-01 03:39:01,15.08834428,0.0001661,53.2182,38.0981,109.2889,250.8283,-5.7376e-05,-1.201e-05,0.0,0 STARLINK-4687,1 53784U 22111M   23335.15209656 -.00001201  00000-0 -57376-4 0  9992,2 53784  53.2182  38.0981 0001661 109.2889 250.8283 15.08834428 67655,6917.897,95.438,540.911,538.613,0.0
53784.0,STARLINK-4687,PAYLOAD,2023-12-01 10:00:33,15.08838311,0.0001724,53.2181,36.9105,99.822,260.2967,2.4816e-05,1.07e-06,0.0,0 STARLINK-4687,1 53784U 22111M   23335.41705640  .00000107  00000-0  24816-4 0  9990,2 53784  53.2181  36.9105 0001724  99.8220 260.2967 15.08838311 68506,6917.886,95.438,540.943,538.558,0.0
53784.0,STARLINK-4687,PAYLOAD,2023-12-02 11:26:43,15.08828772,0.000138,53.2174,32.1566,115.4643,244.6492,-0.00024421,-4.171e-05,0.0,0 STARLINK-4687,1 53784U 22111M   23336.47689234 -.00004171  00000-0 -24421-3 0  9995,2 53784  53.2174  32.1566 0001380 115.4643 244.6492 15.08828772 67855,6917.915,95.438,540.734,538.825,0.0
53784.0,STARLINK-4687,PAYLOAD,2023-12-03 03:20:36,15.0880969,0.0001449,53.2166,29.179,83.308,276.8077,-0.00036314,-6.058e-05,0.0,0 STARLINK-4687,1 53784U 22111M   23337.13931573 -.00006058  00000-0 -36314-3 0  9995,2 53784  53.2166  29.1790 0001449  83.3080 276.8077 15.08809690 67950,6917.973,95.439,540.84,538.836,0.0
53784.0,STARLINK-4687,PAYLOAD,2023-12-03 12:52:56,15.08819573,0.0001432,53.2177,27.3956,78.1942,281.9211,-8.293e-05,-1.607e-05,0.0,0 STARLINK-4687,1 53784U 22111M   23337.53676093 -.00001607  00000-0 -82930-4 0  9993,2 53784  53.2177  27.3956 0001432  78.1942 281.9211 15.08819573 68822,6917.943,95.439,540.798,538.817,0.0
53784.0,STARLINK-4687,PAYLOAD,2023-12-04 09:32:56,15.08836391,0.0002445,53.2183,23.5369,45.2807,314.8384,0.00043957,6.714e-05,0.0,0 STARLINK-4687,1 53784U 22111M   23338.39787995  .00006714  00000-0  43957-3 0  9999,2 53784  53.2183  23.5369 0002445  45.2807 314.8384 15.08836391 68144,6917.891,95.438,541.448,538.065,0.0
53784.0,STARLINK-4687,PAYLOAD,2023-12-05 03:02:10,15.08850899,0.0002046,53.2185,20.2646,51.6303,308.4872,0.00054974,8.474e-05,0.0,0 STARLINK-4687,1 53784U 22111M   23339.12651163  .00008474  00000-0  54974-3 0  9994,2 53784  53.2185  20.2646 0002046  51.6303 308.4872 15.08850899 68259,6917.847,95.437,541.127,538.297,0.0
53784.0,STARLINK-4687,PAYLOAD,2023-12-05 09:23:42,15.08855729,0.0001662,53.219,19.0704,88.579,271.5393,0.00045819,7.015e-05,0.0,0 STARLINK-4687,1 53784U 22111M   23339.39146561  .00007015  00000-0  45819-3 0  9992,2 53784  53.2190  19.0704 0001662  88.5790 271.5393 15.08855729 69108,6917.832,95.437,540.847,538.548,0.0
53784.0,STARLINK-4687,PAYLOAD,2023-12-06 02:52:56,15.08855106,0.0001597,53.2188,15.8004,91.362,268.7555,-1.9319e-05,-5.96e-06,0.0,0 STARLINK-4687,1 53784U 22111M   23340.12009973 -.00000596  00000-0 -19319-4 0  9996,2 53784  53.2188  15.8004 0001597  91.3620 268.7555 15.08855106 68402,6917.834,95.437,540.804,538.594,0.0
53784.0,STARLINK-4687,PAYLOAD,2023-12-06 09:14:29,15.0885329,0.0001552,53.2186,14.6068,93.9113,266.2057,-4.5512e-05,-1.013e-05,0.0,0 STARLINK-4687,1 53784U 22111M   23340.38506142 -.00001013  00000-0 -45512-4 0  9993,2 53784  53.2186  14.6068 0001552  93.9113 266.2057 15.08853290 69259,6917.84,95.437,540.778,538.631,0.0
53784.0,STARLINK-4687,PAYLOAD,2023-12-07 09:05:16,15.08841271,0.0001533,53.2186,10.1468,98.8343,261.2823,-0.00012331,-2.25e-05,0.0,0 STARLINK-4687,1 53784U 22111M   23341.37866606 -.00002250  00000-0 -12331-3 0  9993,2 53784  53.2186  10.1468 0001533  98.8343 261.2823 15.08841271 68590,6917.877,95.437,540.802,538.681,0.0
53784.0,STARLINK-4687,PAYLOAD,2023-12-08 08:56:03,15.08836685,0.0001573,53.2186,5.6882,103.2897,256.8271,4.464e-05,4.22e-06,0.0,0 STARLINK-4687,1 53784U 22111M   23342.37226487  .00000422  00000-0  44640-4 0  9997,2 53784  53.2186   5.6882 0001573 103.2897 256.8271 15.08836685 69555,6917.891,95.438,540.844,538.667,0.0
53784.0,STARLINK-4687,PAYLOAD,2023-12-09 10:22:13,15.08838762,0.0001439,53.2181,0.9304,94.3097,265.806,9.1805e-05,1.173e-05,0.0,0 STARLINK-4687,1 53784U 22111M   23343.43210568  .00001173  00000-0  91805-4 0  9997,2 53784  53.2181   0.9304 0001439  94.3097 265.8060 15.08838762 68902,6917.884,95.438,540.745,538.754,0.0
53784.0,STARLINK-4687,PAYLOAD,2023-12-10 10:13:01,15.08838547,0.0001463,53.218,356.4682,90.5245,269.5915,2.2512e-05,7e-07,0.0,0 STARLINK-4687,1 53784U 22111M   23344.42570940  .00000070  00000-0  22512-4 0  9994,2 53784  53.2180 356.4682 0001463  90.5245 269.5915 15.08838547 69866,6917.885,95.438,540.762,538.738,0.0
53784.0,STARLINK-4687,PAYLOAD,2023-12-11 08:28:25,15.08841057,0.0001482,53.2181,352.3055,86.5306,273.5855,2.5657e-05,1.2e-06,0.0,0 STARLINK-4687,1 53784U 22111M   23345.35306903  .00000120  00000-0  25657-4 0  9992,2 53784  53.2181 352.3055 0001482  86.5306 273.5855 15.08841057 70006,6917.877,95.437,540.767,538.717,0.0
53784.0,STARLINK-4687,PAYLOAD,2023-12-12 06:43:48,15.08843037,0.0001572,53.2179,348.1454,76.5224,283.5943,9.8519e-05,1.28e-05,0.0,0 STARLINK-4687,1 53784U 22111M   23346.28042577  .00001280  00000-0  98519-4 0  9994,2 53784  53.2179 348.1454 0001572  76.5224 283.5943 15.08843037 69330,6917.871,95.437,540.824,538.649,0.0
53784.0,STARLINK-4687,PAYLOAD,2023-12-12 21:02:16,15.08843107,0.0001477,53.2174,345.4687,81.135,278.9809,8.803e-05,1.113e-05,0.0,0 STARLINK-4687,1 53784U 22111M   23346.87658491  .00001113  00000-0  88030-4 0  9999,2 53784  53.2174 345.4687 0001477  81.1350 278.9809 15.08843107 70237,6917.871,95.437,540.758,538.714,0.0
53784.0,STARLINK-4687,PAYLOAD,2023-12-13 04:59:12,15.08841859,0.0001417,53.2173,343.9801,85.1268,274.9886,2.4075e-05,9.5e-07,0.0,0 STARLINK-4687,1 53784U 22111M   23347.20778686  .00000095  00000-0  24075-4 0  9993,2 53784  53.2173 343.9801 0001417  85.1268 274.9886 15.08841859 70281,6917.875,95.437,540.72,538.759,0.0
53784.0,STARLINK-4687,PAYLOAD,2023-12-14 04:49:59,15.08839502,0.0001719,53.2186,339.5211,114.8642,245.2529,3.0684e-06,-2.39e-06,0.0,0 STARLINK-4687,1 53784U 22111M   23348.20138740 -.00000239  00000-0  30684-5 0  9990,2 53784  53.2186 339.5211 0001719 114.8642 245.2529 15.08839502 70436,6917.882,95.438,540.936,538.558,0.0
53784.0,STARLINK-4687,PAYLOAD,2023-12-15 04:40:46,15.08839066,0.0001417,53.2179,335.0593,94.3357,265.7797,3.6327e-05,2.9e-06,0.0,0 STARLINK-4687,1 53784U 22111M   23349.19498820  .00000290  00000-0  36327-4 0  9992,2 53784  53.2179 335.0593 0001417  94.3357 265.7797 15.08839066 69776,6917.883,95.438,540.729,538.768,0.0
53784.0,STARLINK-4687,PAYLOAD,2023-12-15 06:16:09,15.08840381,0.000147,53.2178,334.759,99.2785,260.8373,4.6553e-05,4.53e-06,0.0,0 STARLINK-4687,1 53784U 22111M   23349.26122664  .00000453  00000-0  46553-4 0  9993,2 53784  53.2178 334.7590 0001470  99.2785 260.8373 15.08840381 70596,6917.879,95.438,540.761,538.727,0.0
53784.0,STARLINK-4687,PAYLOAD,2023-12-16 02:56:11,15.08828898,0.0001524,53.2175,330.891,103.1399,256.9763,6.5535e-07,-2.78e-06,0.0,0 STARLINK-4687,1 53784U 22111M   23350.12235832 -.00000278  00000-0  65535-6 0  9991,2 53784  53.2175 330.8910 0001524 103.1399 256.9763 15.08828898 69914,6917.914,95.438,540.834,538.725,0.0
53784.0,STARLINK-4687,PAYLOAD,2023-12-16 04:31:34,15.08829781,0.0001518,53.2176,330.5937,102.4191,257.6971,7.762e-06,-1.64e-06,0.0,0 STARLINK-4687,1 53784U 22111M   23350.18859823 -.00000164  00000-0  77620-5 0  9990,2 53784  53.2176 330.5937 0001518 102.4191 257.6971 15.08829781 70739,6917.912,95.438,540.827,538.726,0.0
53784.0,STARLINK-4687,PAYLOAD,2023-12-17 02:46:58,15.0884045,0.0001488,53.2174,326.4316,105.8622,254.2534,5.6416e-05,6.1e-06,0.0,0 STARLINK-4687,1 53784U 22111M   23351.11595370  .00000610  00000-0  56416-4 0  9992,2 53784  53.2174 326.4316 0001488 105.8622 254.2534 15.08840450 70064,6917.879,95.438,540.773,538.715,0.0
53784.0,STARLINK-4687,PAYLOAD,2023-12-17 05:57:44,15.0884395,0.000147,53.2177,325.8373,93.6514,266.4646,8.1513e-05,1.01e-05,0.0,0 STARLINK-4687,1 53784U 22111M   23351.24843181  .00001010  00000-0  81513-4 0  9993,2 53784  53.2177 325.8373 0001470  93.6514 266.4646 15.08843950 70896,6917.868,95.437,540.75,538.716,0.0
53784.0,STARLINK-4687,PAYLOAD,2023-12-18 05:48:30,15.0885172,0.0001453,53.2175,321.3797,86.6812,273.4346,0.0002076,3.019e-05,0.0,0 STARLINK-4687,1 53784U 22111M   23352.24202306  .00003019  00000-0  20760-3 0  9999,2 53784  53.2175 321.3797 0001453  86.6812 273.4346 15.08851720 70236,6917.845,95.437,540.715,538.704,0.0
53784.0,STARLINK-4687,PAYLOAD,2023-12-19 04:03:56,15.08838216,0.000164,53.2181,317.214,77.227,282.8906,-2.5571e-05,-6.95e-06,0.0,0 STARLINK-4687,1 53784U 22111M   23353.16940069 -.00000695  00000-0 -25571-4 0  9991,2 53784  53.2181 317.2140 0001640  77.2270 282.8906 15.08838216 70377,6917.886,95.438,540.885,538.616,0.0
